GSAT0101 (GALILEO-PFM)  
1 37846U 11060A   25044.22298499 -.00000106  00000+0  00000+0 0  9992
2 37846  57.1143 355.0124 0003861 345.7627  14.2105  1.70475857 82785
GSAT0102 (GALILEO-FM2)  
1 37847U 11060B   25051.46821697 -.00000086  00000+0  00000+0 0  9996
2 37847  57.1139 354.8169 0005387 331.7835 200.0461  1.70476007 82911
GSAT0103 (GALILEO-FM3)  
1 38857U 12055A   25047.78221871 -.00000004  00000+0  00000+0 0  9991
2 38857  55.5228 114.8803 0004941 271.4575  88.5583  1.70473507 76873
GSAT0201 (GALILEO 5)    
1 40128U 14050A   25051.02316134 -.00000032  00000+0  00000+0 0  9992
2 40128  49.3968 293.0706 1620293 160.7759 206.1496  1.85519858 69374
GSAT0202 (GALILEO 6)    
1 40129U 14050B   25050.20252813 -.00000038  00000+0  00000+0 0  9991
2 40129  49.4136 292.1840 1619895 161.5270 205.1400  1.85520576 71528
GSAT0203 (GALILEO 7)    
1 40544U 15017A   25045.17491041 -.00000105  00000+0  00000+0 0  9999
2 40544  56.9048 354.8876 0005379 286.6984  73.2296  1.70475800 60882
GSAT0204 (GALILEO 8)    
1 40545U 15017B   25050.12240371 -.00000090  00000+0  00000+0 0  9992
2 40545  56.9144 354.7700 0004602 279.6941  80.2533  1.70475589 24019
GSAT0205 (GALILEO 9)    
1 40889U 15045A   25051.06410383  .00000072  00000+0  00000+0 0  9999
2 40889  55.1138 234.9196 0006254  47.4581 312.5913  1.70473677 58799
GSAT0206 (GALILEO 10)   
1 40890U 15045B   25046.59203177  .00000046  00000+0  00000+0 0  9995
2 40890  55.1142 235.0385 0004217  48.7737 311.2522  1.70473640 58749
GSAT0209 (GALILEO 12)   
1 41174U 15079A   25051.45352834  .00000001  00000+0  00000+0 0  9995
2 41174  55.5438 114.4907 0004265 312.6805  47.3499  1.70474702 56567
GSAT0208 (GALILEO 11)   
1 41175U 15079B   25049.32713170 -.00000002  00000+0  00000+0 0  9995
2 41175  55.5411 114.5466 0003419 312.8274  47.2138  1.70474711 57102
GSAT0211 (GALILEO 14)   
1 41549U 16030A   25051.21047444  .00000073  00000+0  00000+0 0  9990
2 41549  55.2616 234.9486 0003812  25.2218 334.7940  1.70473711 54459
GSAT0210 (GALILEO 13)   
1 41550U 16030B   25047.94876189  .00000054  00000+0  00000+0 0  9992
2 41550  55.2621 235.0370 0000994 160.9441 199.0486  1.70473919 54394
GSAT0207 (GALILEO 15)   
1 41859U 16069A   25046.46777621 -.00000006  00000+0  00000+0 0  9991
2 41859  55.2076 114.5699 0004784 296.5689  63.4553  1.70474608 51107
GSAT0212 (GALILEO 16)   
1 41860U 16069B   25051.01441520 -.00000001  00000+0  00000+0 0  9991
2 41860  55.2080 114.4395 0003005 323.5961  36.4500  1.70474954 51437
GSAT0213 (GALILEO 17)   
1 41861U 16069C   25050.20942005 -.00000002  00000+0  00000+0 0  9997
2 41861  55.2099 114.4692 0004738 278.4132  81.6009  1.70475216 51281
GSAT0214 (GALILEO 18)   
1 41862U 16069D   25045.07570554 -.00000008  00000+0  00000+0 0  9999
2 41862  55.2059 114.6047 0003610 279.3236  80.7062  1.70475110 51324
GSAT0215 (GALILEO 19)   
1 43055U 17079A   25050.25844531  .00000068  00000+0  00000+0 0  9997
2 43055  55.2420 234.7935 0000837  37.9420 322.0578  1.70474432 44752
GSAT0216 (GALILEO 20)   
1 43056U 17079B   25045.27071286  .00000041  00000+0  00000+0 0  9994
2 43056  55.2414 234.9309 0001662 330.5666  29.4174  1.70474495 44652
GSAT0217 (GALILEO 21)   
1 43057U 17079C   25044.31813127  .00000041  00000+0  00000+0 0  9997
2 43057  55.2369 234.9554 0002158   1.3087 358.6903  1.70474343 44654
GSAT0218 (GALILEO 22)   
1 43058U 17079D   25047.47106761  .00000051  00000+0  00000+0 0  9998
2 43058  55.2390 234.8662 0001797 313.1541  46.8192  1.70474470 44731
GSAT0221 (GALILEO 25)   
1 43564U 18060A   25050.30543786 -.00000089  00000+0  00000+0 0  9991
2 43564  57.2881 354.8113 0005755 301.4782  58.4649  1.70475541 40944
GSAT0222 (GALILEO 26)   
1 43565U 18060B   25050.52431465 -.00000088  00000+0  00000+0 0  9995
2 43565  57.2918 354.8077 0004503 279.7574  80.1914  1.70475294 40987
GSAT0219 (GALILEO 23)   
1 43566U 18060C   25048.39947915 -.00000095  00000+0  00000+0 0  9998
2 43566  57.2915 354.8665 0005291 306.4737  53.4736  1.70475634 40929
GSAT0220 (GALILEO 24)   
1 43567U 18060D   25048.62026472 -.00000094  00000+0  00000+0 0  9990
2 43567  57.2912 354.8609 0005474 302.2440  57.6995  1.70475724 40915
GSAT0223 (GALILEO 27)   
1 49809U 21116A   25050.53663124 -.00000088  00000+0  00000+0 0  9998
2 49809  57.2809 354.7022 0002733 272.2602 274.3813  1.70475772 19954
GSAT0224 (GALILEO 28)   
1 49810U 21116B   25051.51215455 -.00000085  00000+0  00000+0 0  9996
2 49810  57.2816 354.6746 0002149 289.1344 248.7441  1.70475763 19993
GSAT0225 (GALILEO 29)   
1 59598U 24079A   25049.18725553 -.00000004  00000+0  00000+0 0  9997
2 59598  54.8266 114.6215 0002869 229.3768 313.2256  1.70475263  5069
GSAT0227 (GALILEO 30)   
1 59600U 24079C   25051.41947888 -.00000001  00000+0  00000+0 0  9994
2 59600  54.8230 114.5588 0001287 141.6893 218.3856  1.70475059  5158
GSAT0232 (GALILEO 32)   
1 61182U 24167A   25049.99221773  .00000067  00000+0  00000+0 0  9999
2 61182  55.3489 234.5689 0001929 175.9459 223.4573  1.70474026  2641
GSAT0226 (GALILEO 31)   
1 61183U 24167B   25051.18518591  .00000073  00000+0  00000+0 0  9998
2 61183  55.3473 234.5420 0002001 109.3626  54.7414  1.70474110  2639
